{"type": "FeatureCollection", "features": [ {"type": "Feature", "properties": {"norad_id": 34878, "name": "COSMOS 2251 DEB", "group": "cosmos-2251-debris", "lat": 44.9036005906525, "lon": -171.22717544254672, "alt_km": 1273.2021536204502, "timestamp": "2025-12-26T12:57:39.667595+00:00", "meta": {"OBJECT_NAME": "COSMOS 2251 DEB", "OBJECT_ID": "1993-036ACR", "EPOCH": "2025-12-26T01:44:55.738176", "MEAN_MOTION": 13.44208348, "ECCENTRICITY": 0.04356984, "INCLINATION": 73.9645, "RA_OF_ASC_NODE": 26.1695, "ARG_OF_PERICENTER": 7.0883, "MEAN_ANOMALY": 21.5785, "EPHEMERIS_TYPE": 0, "CLASSIFICATION_TYPE": "U", "NORAD_CAT_ID": 34878, "ELEMENT_SET_NO": 999, "REV_AT_EPOCH": 81452, "BSTAR": 0.00070715801, "MEAN_MOTION_DOT": 7.05e-06, "MEAN_MOTION_DDOT": 0}, "tle": {"line1": "1 34878U 93036ACR 25360.07286734  .00000705  00000+0  70716-3 0  9999", "line2": "2 34878  73.9645  26.1695 0435698   7.0883  21.5785 13.44208348814521"}}, "geometry": {"type": "Point", "coordinates": [-171.22717544254672, 44.9036005906525]}}, {"type": "Feature", "properties": {"norad_id": 34882, "name": "COSMOS 2251 DEB", "group": "cosmos-2251-debris", "lat": 11.101394111234228, "lon": -157.57546903650106, "alt_km": 649.9484213532678, "timestamp": "2025-12-26T12:57:39.667605+00:00", "meta": {"OBJECT_NAME": "COSMOS 2251 DEB", "OBJECT_ID": "1993-036ACV", "EPOCH": "2025-12-24T14:54:49.727232", "MEAN_MOTION": 14.61616436, "ECCENTRICITY": 0.00833525, "INCLINATION": 74.0451, "RA_OF_ASC_NODE": 202.874, "ARG_OF_PERICENTER": 327.0403, "MEAN_ANOMALY": 32.5581, "EPHEMERIS_TYPE": 0, "CLASSIFICATION_TYPE": "U", "NORAD_CAT_ID": 34882, "ELEMENT_SET_NO": 999, "REV_AT_EPOCH": 88698, "BSTAR": 0.00012189648, "MEAN_MOTION_DOT": 6.03e-06, "MEAN_MOTION_DDOT": 0}, "tle": {"line1": "1 34882U 93036ACV 25358.62140888  .00000603  00000+0  12190-3 0  9990", "line2": "2 34882  74.0451 202.8740 0083352 327.0403  32.5581 14.61616436886982"}}, "geometry": {"type": "Point", "coordinates": [-157.57546903650106, 11.101394111234228]}}, {"type": "Feature", "properties": {"norad_id": 34883, "name": "COSMOS 2251 DEB", "group": "cosmos-2251-debris", "lat": -66.88233144527102, "lon": -4.559508700969309, "alt_km": 700.5424446868874, "timestamp": "2025-12-26T12:57:39.667615+00:00", "meta": {"OBJECT_NAME": "COSMOS 2251 DEB", "OBJECT_ID": "1993-036ACW", "EPOCH": "2025-12-25T12:29:30.541632", "MEAN_MOTION": 14.51859717, "ECCENTRICITY": 0.0094459, "INCLINATION": 74.2013, "RA_OF_ASC_NODE": 38.8875, "ARG_OF_PERICENTER": 221.5013, "MEAN_ANOMALY": 137.8952, "EPHEMERIS_TYPE": 0, "CLASSIFICATION_TYPE": "U", "NORAD_CAT_ID": 34883, "ELEMENT_SET_NO": 999, "REV_AT_EPOCH": 86625, "BSTAR": 0.0033923, "MEAN_MOTION_DOT": 0.00014484, "MEAN_MOTION_DDOT": 0}, "tle": {"line1": "1 34883U 93036ACW 25359.52049238  .00014484  00000+0  33923-2 0  9996", "line2": "2 34883  74.2013  38.8875 0094459 221.5013 137.8952 14.51859717866259"}}, "geometry": {"type": "Point", "coordinates": [-4.559508700969309, -66.88233144527102]}}, {"type": "Feature", "properties": {"norad_id": 34884, "name": "COSMOS 2251 DEB", "group": "cosmos-2251-debris", "lat": -19.58847777940538, "lon": 23.226284838444553, "alt_km": 599.0071431685046, "timestamp": "2025-12-26T12:57:39.667626+00:00", "meta": {"OBJECT_NAME": "COSMOS 2251 DEB", "OBJECT_ID": "1993-036ACX", "EPOCH": "2025-12-26T01:54:35.167680", "MEAN_MOTION": 14.90656888, "ECCENTRICITY": 0.0003309, "INCLINATION": 74.0173, "RA_OF_ASC_NODE": 30.0032, "ARG_OF_PERICENTER": 25.3539, "MEAN_ANOMALY": 4.3591, "EPHEMERIS_TYPE": 0, "CLASSIFICATION_TYPE": "U", "NORAD_CAT_ID": 34884, "ELEMENT_SET_NO": 999, "REV_AT_EPOCH": 88004, "BSTAR": 0.0022176721, "MEAN_MOTION_DOT": 0.00021778, "MEAN_MOTION_DDOT": 0}, "tle": {"line1": "1 34884U 93036ACX 25360.07957370  .00021778  00000+0  22177-2 0  9997", "line2": "2 34884  74.0173  30.0032 0003309  25.3539   4.3591 14.90656888880048"}}, "geometry": {"type": "Point", "coordinates": [23.226284838444553, -19.58847777940538]}}, {"type": "Feature", "properties": {"norad_id": 34885, "name": "COSMOS 2251 DEB", "group": "cosmos-2251-debris", "lat": 72.04344654036176, "lon": -85.04538683400797, "alt_km": 721.8557684196348, "timestamp": "2025-12-26T12:57:39.667636+00:00", "meta": {"OBJECT_NAME": "COSMOS 2251 DEB", "OBJECT_ID": "1993-036ACY", "EPOCH": "2025-12-25T20:30:09.906912", "MEAN_MOTION": 14.51573289, "ECCENTRICITY": 0.00150484, "INCLINATION": 74.0301, "RA_OF_ASC_NODE": 158.3276, "ARG_OF_PERICENTER": 243.82, "MEAN_ANOMALY": 232.4643, "EPHEMERIS_TYPE": 0, "CLASSIFICATION_TYPE": "U", "NORAD_CAT_ID": 34885, "ELEMENT_SET_NO": 999, "REV_AT_EPOCH": 87669, "BSTAR": 0.00082730584, "MEAN_MOTION_DOT": 3.29e-05, "MEAN_MOTION_DDOT": 0}, "tle": {"line1": "1 34885U 93036ACY 25359.85428133  .00003290  00000+0  82731-3 0  9994", "line2": "2 34885  74.0301 158.3276 0015048 243.8200 232.4643 14.51573289876699"}}, "geometry": {"type": "Point", "coordinates": [-85.04538683400797, 72.04344654036176]}}, {"type": "Feature", "properties": {"norad_id": 34886, "name": "COSMOS 2251 DEB", "group": "cosmos-2251-debris", "lat": -46.940475916088936, "lon": -11.020161606390642, "alt_km": 455.84684388874484, "timestamp": "2025-12-26T12:57:39.667646+00:00", "meta": {"OBJECT_NAME": "COSMOS 2251 DEB", "OBJECT_ID": "1993-036ACZ", "EPOCH": "2025-12-26T02:36:50.580000", "MEAN_MOTION": 15.40427097, "ECCENTRICITY": 0.00320894, "INCLINATION": 73.9509, "RA_OF_ASC_NODE": 151.9737, "ARG_OF_PERICENTER": 333.08, "MEAN_ANOMALY": 26.8741, "EPHEMERIS_TYPE": 0, "CLASSIFICATION_TYPE": "U", "NORAD_CAT_ID": 34886, "ELEMENT_SET_NO": 999, "REV_AT_EPOCH": 63204, "BSTAR": 0.0017702923, "MEAN_MOTION_DOT": 0.00073619, "MEAN_MOTION_DDOT": 0}, "tle": {"line1": "1 34886U 93036ACZ 25360.10891875  .00073619  00000+0  17703-2 0  9990", "line2": "2 34886  73.9509 151.9737 0032089 333.0800  26.8741 15.40427097632048"}}, "geometry": {"type": "Point", "coordinates": [-11.020161606390642, -46.940475916088936]}}, {"type": "Feature", "properties": {"norad_id": 34907, "name": "COSMOS 2251 DEB", "group": "cosmos-2251-debris", "lat": -73.84665359867397, "lon": -65.14113272293731, "alt_km": 401.50793903038357, "timestamp": "2025-12-26T12:57:39.667656+00:00", "meta": {"OBJECT_NAME": "COSMOS 2251 DEB", "OBJECT_ID": "1993-036ADC", "EPOCH": "2025-12-26T00:59:09.943584", "MEAN_MOTION": 15.54798885, "ECCENTRICITY": 0.00149707, "INCLINATION": 73.9657, "RA_OF_ASC_NODE": 19.1552, "ARG_OF_PERICENTER": 322.4289, "MEAN_ANOMALY": 37.5879, "EPHEMERIS_TYPE": 0, "CLASSIFICATION_TYPE": "U", "NORAD_CAT_ID": 34907, "ELEMENT_SET_NO": 999, "REV_AT_EPOCH": 88179, "BSTAR": 0.0076188915, "MEAN_MOTION_DOT": 0.0054544, "MEAN_MOTION_DDOT": 0}, "tle": {"line1": "1 34907U 93036ADC 25360.04108731  .00545440  00000+0  76189-2 0  9998", "line2": "2 34907  73.9657  19.1552 0014970 322.4289  37.5879 15.54798885881798"}}, "geometry": {"type": "Point", "coordinates": [-65.14113272293731, -73.84665359867397]}}, {"type": "Feature", "properties": {"norad_id": 34908, "name": "COSMOS 2251 DEB", "group": "cosmos-2251-debris", "lat": 0.881004808378116, "lon": 178.04566908245312, "alt_km": 797.9442959700291, "timestamp": "2025-12-26T12:57:39.667666+00:00", "meta": {"OBJECT_NAME": "COSMOS 2251 DEB", "OBJECT_ID": "1993-036ADD", "EPOCH": "2025-12-24T10:43:39.700992", "MEAN_MOTION": 14.37433526, "ECCENTRICITY": 0.00406595, "INCLINATION": 74.0579, "RA_OF_ASC_NODE": 2.1423, "ARG_OF_PERICENTER": 14.7235, "MEAN_ANOMALY": 137.436, "EPHEMERIS_TYPE": 0, "CLASSIFICATION_TYPE": "U", "NORAD_CAT_ID": 34908, "ELEMENT_SET_NO": 999, "REV_AT_EPOCH": 87447, "BSTAR": 0.0005476007, "MEAN_MOTION_DOT": 1.627e-05, "MEAN_MOTION_DDOT": 0}, "tle": {"line1": "1 34908U 93036ADD 25358.44698728  .00001627  00000+0  54760-3 0  9996", "line2": "2 34908  74.0579   2.1423 0040659  14.7235 137.4360 14.37433526874478"}}, "geometry": {"type": "Point", "coordinates": [178.04566908245312, 0.881004808378116]}}, {"type": "Feature", "properties": {"norad_id": 34909, "name": "COSMOS 2251 DEB", "group": "cosmos-2251-debris", "lat": 18.122473993955538, "lon": -135.94447372924083, "alt_km": 581.0217435496706, "timestamp": "2025-12-26T12:57:39.667676+00:00", "meta": {"OBJECT_NAME": "COSMOS 2251 DEB", "OBJECT_ID": "1993-036ADE", "EPOCH": "2025-12-25T19:59:15.179712", "MEAN_MOTION": 14.7793658, "ECCENTRICITY": 0.00836064, "INCLINATION": 74.014, "RA_OF_ASC_NODE": 50.8291, "ARG_OF_PERICENTER": 183.5214, "MEAN_ANOMALY": 176.5384, "EPHEMERIS_TYPE": 0, "CLASSIFICATION_TYPE": "U", "NORAD_CAT_ID": 34909, "ELEMENT_SET_NO": 999, "REV_AT_EPOCH": 67045, "BSTAR": 0.0004989948, "MEAN_MOTION_DOT": 3.776e-05, "MEAN_MOTION_DDOT": 0}, "tle": {"line1": "1 34909U 93036ADE 25359.83281458  .00003776  00000+0  49899-3 0  9993", "line2": "2 34909  74.0140  50.8291 0083606 183.5214 176.5384 14.77936580670451"}}, "geometry": {"type": "Point", "coordinates": [-135.94447372924083, 18.122473993955538]}}, {"type": "Feature", "properties": {"norad_id": 34910, "name": "COSMOS 2251 DEB", "group": "cosmos-2251-debris", "lat": 1.3792019837982465, "lon": 80.04695095616725, "alt_km": 1458.0723162219292, "timestamp": "2025-12-26T12:57:39.667687+00:00", "meta": {"OBJECT_NAME": "COSMOS 2251 DEB", "OBJECT_ID": "1993-036ADF", "EPOCH": "2025-12-23T22:45:30.280032", "MEAN_MOTION": 13.37707493, "ECCENTRICITY": 0.0467761, "INCLINATION": 73.8761, "RA_OF_ASC_NODE": 83.7364, "ARG_OF_PERICENTER": 200.8485, "MEAN_ANOMALY": 282.4529, "EPHEMERIS_TYPE": 0, "CLASSIFICATION_TYPE": "U", "NORAD_CAT_ID": 34910, "ELEMENT_SET_NO": 999, "REV_AT_EPOCH": 81674, "BSTAR": 0.0010465, "MEAN_MOTION_DOT": 1.013e-05, "MEAN_MOTION_DDOT": 0}, "tle": {"line1": "1 34910U 93036ADF 25357.94826713  .00001013  00000+0  10465-2 0  9992", "line2": "2 34910  73.8761  83.7364 0467761 200.8485 282.4529 13.37707493816742"}}, "geometry": {"type": "Point", "coordinates": [80.04695095616725, 1.3792019837982465]}}]}